RS-40
1 38735U 12041C   23322.18072221  .00000009  00000-0 -21370-5 0  9997
2 38735  82.4730 302.0667 0016790 324.8191  35.1779 12.42597754512935
AENEAS
1 38760U          23265.85685185  .00000000  00000-0  15764-2 0    06
2 38760  64.6448 191.4103 0027263 114.7582 355.9422 15.68528680    04
CP5
1 38763U 12048F   23321.48514117 +.00009442 +00000+0 +54608-3 0    12
2 38763  64.6599 237.0791 0094379  96.0404 265.1481 15.09030874544649
METOP-B
1 38771U 12049A   23322.17590622  .00000133  00000-0  80693-4 0  9993
2 38771  98.6593  18.8268 0000847  97.3758 324.3573 14.21509042579421
AAUSAT3
1 39087U 13009B   23322.09649060  .00000739  00000-0  26263-3 0  9997
2 39087  98.3728 153.1781 0012394 153.5608 206.6214 14.37137845562039
STRAND-1
1 39090U 13009E   23322.09569504  .00000357  00000-0  13815-3 0  9990
2 39090  98.3815 151.2321 0009194 158.9846 201.1720 14.35776562561827
RS-43
1 39133U 13015D   23322.08387356  .00003844  00000-0  24352-3 0  9999
2 39133  64.8736  60.7097 0017471 225.5128 134.4567 15.10356519581302
BEESAT-3
1 39135U 13015F   23321.21847579  .00148997  00000-0  11107-2 0  9995
2 39135  64.8440 175.5208 0011182 245.2842 114.7147 15.71995118585704
BEESAT-2
1 39136U 13015G   23322.02999850  .00082100  00000-0  93905-3 0  9996
2 39136  64.8578 188.5764 0020043 254.3699 105.5237 15.61448253585974
TURKSAT-3U
1 39152U 13018C   23322.17740684  .00002522  00000-0  30108-3 0  9998
2 39152  97.8438  46.1072 0014873 341.8130  18.2551 14.85049411570724
CUBEBUG-1
1 39153U 13018D   23322.00904680  .00002827  00000-0  33604-3 0  9991
2 39153  98.0546  79.5793 0015345   8.8181 351.3300 14.85157858570693
ESTCUBE-1
1 39161U 13021C   23322.17910321  .00001552  00000-0  23736-3 0  9990
2 39161  97.8563  30.0186 0009004 186.4845 173.6249 14.75091368565863
CUSAT
1 39266U 13055B   23321.92604137  .00017467  00000-0  35290-3 0  9990
2 39266  80.9715  35.7142 0485005  84.0889 281.5362 14.73390466529814
DANDE
1 39267U 13055C   23322.16476418  .00008132  00000-0  20986-3 0  9992
2 39267  81.0020 123.3104 0607980 296.1063  57.8780 14.42524319524945
ESHAIL-1
1 39233U 13044A   23321.86154279  .00000156  00000-0  00000-0 0  9997
2 39233   0.0575  22.9419 0001932 209.8933 159.4843  1.00272437 37173
ZACUBE-1
1 39417U 13066B   23321.66053116  .00002412  00000-0  27162-3 0  9999
2 39417  97.7074 278.2479 0054388 140.5768 219.9426 14.86484457539986
UNISAT-5
1 39421U 13066F   23321.48249615  .00003809  00000-0  37519-3 0  9993
2 39421  97.5564 295.9658 0029338  23.3193 336.9350 14.92307109541451
TRITON-1
1 39427U 13066M   23322.05151050  .00002822  00000-0  41726-3 0  9997
2 39427  97.8383 242.2119 0107494  44.7963 316.1861 14.72099629535170
DELFI-N3XT
1 39428U 13066N   23321.98553899  .00004523  00000-0  62499-3 0  9996
2 39428  97.8352 241.5402 0108946  54.9225 306.2142 14.74516743534962
GOMX-1
1 39430U 13066Q   23322.15655520  .00001787  00000-0  31170-3 0  9994
2 39430  97.7577 204.2219 0142497 205.4170 153.9979 14.62732847532039
HUMSAT-D
1 39433U 13066T   23321.77732312  .00007024  00000-0  52929-3 0  9994
2 39433  97.4823 314.5966 0018751 292.1875  67.7360 15.02638225542797
VELOX-P2
1 39438U 13066Y   23321.42580100  .00002419  00000-0  29897-3 0  9998
2 39438  97.7622 269.8600 0064105 206.3408 153.4542 14.82263426537638
FIRSTMOVE
1 39439U 13066Z   23321.62037948  .00006019  00000-0  56687-3 0  9995
2 39439  97.7001 283.2797 0054473 125.7191 234.9114 14.93065020539091
CUBEBUG-2
1 39440U 13066AA  23322.10977355  .00002632  00000-0  33298-3 0  9996
2 39440  97.7903 266.0876 0071460 245.8077 113.5655 14.80893522538120
FUNCUBE-1
1 39444U 13066AE  23321.83455552  .00003957  00000-0  42016-3 0  9998
2 39444  97.6932 281.1324 0052826 123.8605 236.7655 14.88558934538488
UWE-3
1 39446U 13066AG  23321.35402669  .00002989  00000-0  35723-3 0  9999
2 39446  97.7553 271.4448 0062859 196.2498 163.6702 14.83532512537120
FIREBIRD-A
1 39463U 13072B   23322.04228100  .00680445  18256-3  28045-2 0  9990
2 39463 120.4138  36.6971 0028733 159.7897 200.4350 15.84824284230068
FIREBIRD-B
1 39464U 13072C   23321.44457168 +.00012132 +00000+0 +73419-3 0    18
2 39464 120.4776  89.3989 0216924 106.0143 256.4923 14.93650529533994
IPEX
1 39471U 13072K   23321.36357636 +.00009210 +00000+0 +62641-3 0    14
2 39471 120.4891  38.1647 0236648  90.9509 271.8669 14.87238788535436
RS-41
1 39492U 13078C   23322.15827386  .00001990  00000-0  20150-3 0  9998
2 39492  82.4165  99.6669 0018732 181.2658 178.8516 14.90363292536977
RS-46
1 39497U 13076E   23322.17172967  .00000014  00000-0  32417-4 0  9997
2 39497  82.4897  35.8229 0012559 350.5037   9.5804 12.43471106448939
RS-47
1 39765U 14028E   23322.09554181  .00000029  00000-0  62979-4 0  9998
2 39765  82.4490 168.1213 0232308  53.5424 308.6846 12.82864805444441
SPROUT
1 39770U 14029E   23321.95372563  .00024180  00000-0  14138-2 0  9997
2 39770  98.0020  94.8639 0005230 169.9975 190.1359 15.11859077515308
UNISAT-6
1 40012U 14033C   23322.01811781  .00002443  00000-0  33883-3 0  9998
2 40012  97.6826 128.7192 0053408 276.5586  82.9547 14.77855396506489
BUGSAT-1
1 40014U 14033E   23321.89441672  .00003989  00000-0  31193-3 0  9991
2 40014  98.1508 347.9325 0035664 120.1522 240.3242 15.01203218513764
AURORA
1 40017U 14033H   23322.14005356  .00002755  00000-0  22557-3 0  9992
2 40017  98.1463 330.2937 0019666 141.9322 218.3293 15.00067496513164
PACE
1 40022U 14033N   23321.82209074  .00003864  00000-0  36360-3 0  9994
2 40022  98.0157 270.1982 0012787 143.9752 216.2332 14.94425035511480
DUCHIFAT-1
1 40021U 14033M   23321.18569363  .00008221  00000-0  64583-3 0  9992
2 40021  98.0748 290.5041 0015149  97.6624 262.6320 15.01080903512118
NCBR1
1 40024U 14033Q   23321.71677988  .00006118  00000-0  51572-3 0  9994
2 40024  98.0503 281.0949 0012474 120.9759 239.2690 14.98506434511384
QB50P1
1 40025U 14033R   23322.09778973  .00004191  00000-0  37934-3 0  9998
2 40025  98.0167 271.9314 0012021 134.2068 226.0142 14.95918236511643
POPSATHIP-1
1 40028U 14033U   23322.07764292  .00004205  00000-0  38608-3 0  9993
2 40028  98.0272 273.5148 0013179 138.9239 221.2975 14.95344745511562
DTUSAT-2
1 40030U 14033W   23321.60019779  .00004588  00000-0  42508-3 0  9995
2 40030  97.9840 264.3849 0011757 133.6018 226.6180 14.94949556510901
QB50P2
1 40032U 14033Y   23321.37388133  .00004204  00000-0  38978-3 0  9995
2 40032  97.9826 264.1704 0011312 136.9468 223.2638 14.94969356510841
ANTELSAT
1 40034U 14033AA  23321.98917929  .00002638  00000-0  35961-3 0  9993
2 40034  97.6796 130.1240 0053321 273.4082  86.1031 14.78517938506506
PERSEUS-M2
1 40037U 14033AD  23321.98701939  .00001226  00000-0  13557-3 0  9997
2 40037  97.9136 247.4167 0013741 167.8120 192.3432 14.89172252510734
PERSEUS-M1
1 40039U 14033AF  23321.36976924  .00001473  00000-0  16285-3 0  9994
2 40039  97.8971 243.4291 0013513 169.0657 191.0857 14.88870737510001
POLYITAN
1 40042U 14033AJ  23321.45161058  .00005219  00000-0  45369-3 0  9999
2 40042  98.0274 273.6509 0013425 129.3983 230.8429 14.97368662510954
TIGRISAT
1 40043U 14033AK  23321.91304982  .00001880  00000-0  26502-3 0  9994
2 40043  97.6746 129.3634 0055638 274.4575  85.0281 14.77346300506102
AISAT
1 40054U 14034B   23321.89043843  .00004153  00000-0  48901-3 0  9993
2 40054  98.3551 161.4582 0011751  88.1370 272.1189 14.85351169506267
CANX-4
1 40055U 14034C   23322.09586896  .00001249  00000-0  18442-3 0  9997
2 40055  98.3940 143.1487 0014268 143.5753 216.6430 14.77111980505265
CANX-5
1 40056U 14034D   23322.10217979  .00001264  00000-0  18653-3 0  9994
2 40056  98.3944 143.1488 0014251 143.8390 216.3785 14.77118175505266
VELOX-1
1 40057U 14034E   23322.08072251  .00002972  00000-0  36896-3 0  9990
2 40057  98.3597 162.1799 0010601 104.4127 255.8263 14.83403929506231
METEOR-M2
1 40069U 14037A   23322.14369421  .00000094  00000-0  62601-4 0  9998
2 40069  98.4286 321.0062 0004620 251.7326 108.3349 14.20842751485515
DX-1
1 40071U 14037C   23322.13259582  .00001504  00000-0  18916-3 0  9992
2 40071  98.3429 220.0666 0009484  87.8383 272.3916 14.83653057506185
UKUBE-1
1 40074U 14037F   23321.99229685  .00004206  00000-0  44031-3 0  9998
2 40074  98.3371 234.6432 0005677  57.4831 302.6933 14.90190902507143
HODOYOSHI-1
1 40299U 14070B   23322.14285229  .00010536  00000-0  28060-3 0  9995
2 40299  97.1737  21.0685 0010981  86.7436 273.5066 15.38303700502438
CHUBUSAT-1
1 40300U 14070C   23322.06236953  .00013138  00000-0  34923-3 0  9995
2 40300  97.1173   3.3105 0015669 103.1709 257.1286 15.38239775501969
TSUBAME
1 40302U 14070E   23322.10104258  .00015298  00000-0  42931-3 0  9991
2 40302  97.1210 328.8658 0025923 163.7599 196.4482 15.36304084500544
GRIFEX
1 40379U 15003D   23321.87491280  .00074422  00000-0  82202-3 0  9998
2 40379  99.0865 297.9743 0057609  94.3285 266.4553 15.60716857487175
EXOCUBE
1 40380U 15003E   23321.43363208  .00029447  00000-0  58392-3 0  9990
2 40380  99.0956 283.9832 0079437 137.5998 223.1420 15.43560737486274
DEORBITSAIL
1 40719U 15032E   23322.12611212  .00003886  00000-0  47939-3 0  9990
2 40719  97.7103 187.6178 0015458 110.4646 249.8229 14.83349976450620
XW-2C
1 40906U 15049H   23322.18304690  .00012066  00000-0  39930-3 0  9993
2 40906  97.4922 330.3268 0009997 351.8420   8.2657 15.31432578451924
XW-2D
1 40907U 15049J   23322.08634162  .00015260  00000-0  45701-3 0  9995
2 40907  97.4891 331.2901 0008442 345.7163  14.3840 15.34581364452030
LILACSAT-2
1 40908U 15049K   23322.12484578  .00005049  00000-0  22330-3 0  9992
2 40908  97.5283 325.0143 0014063  21.5269 338.6555 15.22066214451198
XW-2E
1 40909U 15049L   23322.12217074  .00046245  00000-0  72930-3 0  9992
2 40909  97.4404 339.8581 0003252 292.4813  67.6095 15.53402709452909
XW-2F
1 40910U 15049M   23322.00128417  .00045818  00000-0  74781-3 0  9994
2 40910  97.4510 338.9919 0004164 297.2734  62.8094 15.52444283452618
